{
  "type": "FeatureCollection",
  "features": [
    {
      "type": "Feature",
      "properties": {
        "norad_id": 29798,
        "name": "FENGYUN 1C DEB",
        "group": "fengyun-1c-debris",
        "lat": -59.81052376335297,
        "lon": 67.41616792784143,
        "alt_km": 830.2097021889103,
        "timestamp": "2025-12-13T03:42:11.544299+00:00",
        "meta_object_name": "FENGYUN 1C DEB",
        "meta_object_id": "1999-025CQ",
        "meta_epoch": "2025-12-12T04:16:47.711136",
        "meta_mean_motion": 13.99565882,
        "meta_eccentricity": 0.01115775,
        "meta_inclination": 99.2953,
        "meta_ra_of_asc_node": 50.0751,
        "meta_arg_of_pericenter": 274.017,
        "meta_mean_anomaly": 149.6014,
        "meta_ephemeris_type": 0,
        "meta_classification_type": "U",
        "meta_norad_cat_id": 29798,
        "meta_element_set_no": 999,
        "meta_rev_at_epoch": 95917,
        "meta_bstar": 0.0021263144,
        "meta_mean_motion_dot": 3.229e-05,
        "meta_mean_motion_ddot": 0,
        "tle_line1": "1 29798U 99025CQ  25346.17832999  .00003229  00000+0  21263-2 0  9999",
        "tle_line2": "2 29798  99.2953  50.0751 0111577 274.0170 149.6014 13.99565882959177"
      },
      "geometry": {
        "type": "Point",
        "coordinates": [
          67.41616792784143,
          -59.81052376335297
        ]
      }
    },
    {
      "type": "Feature",
      "properties": {
        "norad_id": 29800,
        "name": "FENGYUN 1C DEB",
        "group": "fengyun-1c-debris",
        "lat": 74.49253928460091,
        "lon": -139.57690074288172,
        "alt_km": 943.6177641946124,
        "timestamp": "2025-12-13T03:42:11.544312+00:00",
        "meta_object_name": "FENGYUN 1C DEB",
        "meta_object_id": "1999-025CS",
        "meta_epoch": "2025-12-10T23:50:01.654944",
        "meta_mean_motion": 13.98548648,
        "meta_eccentricity": 0.01334633,
        "meta_inclination": 98.2897,
        "meta_ra_of_asc_node": 6.7701,
        "meta_arg_of_pericenter": 232.1976,
        "meta_mean_anomaly": 156.9457,
        "meta_ephemeris_type": 0,
        "meta_classification_type": "U",
        "meta_norad_cat_id": 29800,
        "meta_element_set_no": 999,
        "meta_rev_at_epoch": 95552,
        "meta_bstar": 0.0026591185,
        "meta_mean_motion_dot": 4.076e-05,
        "meta_mean_motion_ddot": 0,
        "tle_line1": "1 29800U 99025CS  25344.99307471  .00004076  00000+0  26591-2 0  9993",
        "tle_line2": "2 29800  98.2897   6.7701 0133463 232.1976 156.9457 13.98548648955524"
      },
      "geometry": {
        "type": "Point",
        "coordinates": [
          -139.57690074288172,
          74.49253928460091
        ]
      }
    },
    {
      "type": "Feature",
      "properties": {
        "norad_id": 29801,
        "name": "FENGYUN 1C DEB",
        "group": "fengyun-1c-debris",
        "lat": 79.79510230093881,
        "lon": -171.13253926028955,
        "alt_km": 838.1842388278719,
        "timestamp": "2025-12-13T03:42:11.544323+00:00",
        "meta_object_name": "FENGYUN 1C DEB",
        "meta_object_id": "1999-025CT",
        "meta_epoch": "2025-12-12T07:47:21.965856",
        "meta_mean_motion": 14.35896459,
        "meta_eccentricity": 0.0102818,
        "meta_inclination": 98.7949,
        "meta_ra_of_asc_node": 247.3395,
        "meta_arg_of_pericenter": 268.633,
        "meta_mean_anomaly": 209.4892,
        "meta_ephemeris_type": 0,
        "meta_classification_type": "U",
        "meta_norad_cat_id": 29801,
        "meta_element_set_no": 999,
        "meta_rev_at_epoch": 98935,
        "meta_bstar": 0.00030793277,
        "meta_mean_motion_dot": 8.99e-06,
        "meta_mean_motion_ddot": 0,
        "tle_line1": "1 29801U 99025CT  25346.32455979  .00000899  00000+0  30793-3 0  9999",
        "tle_line2": "2 29801  98.7949 247.3395 0102818 268.6330 209.4892 14.35896459989351"
      },
      "geometry": {
        "type": "Point",
        "coordinates": [
          -171.13253926028955,
          79.79510230093881
        ]
      }
    },
    {
      "type": "Feature",
      "properties": {
        "norad_id": 29802,
        "name": "FENGYUN 1C DEB",
        "group": "fengyun-1c-debris",
        "lat": 71.13752054538647,
        "lon": -57.35724953259238,
        "alt_km": 695.292495941083,
        "timestamp": "2025-12-13T03:42:11.544333+00:00",
        "meta_object_name": "FENGYUN 1C DEB",
        "meta_object_id": "1999-025CU",
        "meta_epoch": "2025-12-12T06:08:47.920416",
        "meta_mean_motion": 14.62303292,
        "meta_eccentricity": 0.0037142,
        "meta_inclination": 98.6189,
        "meta_ra_of_asc_node": 95.3498,
        "meta_arg_of_pericenter": 340.2885,
        "meta_mean_anomaly": 80.572,
        "meta_ephemeris_type": 0,
        "meta_classification_type": "U",
        "meta_norad_cat_id": 29802,
        "meta_element_set_no": 999,
        "meta_rev_at_epoch": 98466,
        "meta_bstar": 0.0041326818,
        "meta_mean_motion_dot": 0.00021073,
        "meta_mean_motion_ddot": 0,
        "tle_line1": "1 29802U 99025CU  25346.25611019  .00021073  00000+0  41327-2 0  9992",
        "tle_line2": "2 29802  98.6189  95.3498 0037142 340.2885  80.5720 14.62303292984666"
      },
      "geometry": {
        "type": "Point",
        "coordinates": [
          -57.35724953259238,
          71.13752054538647
        ]
      }
    },
    {
      "type": "Feature",
      "properties": {
        "norad_id": 29804,
        "name": "FENGYUN 1C DEB",
        "group": "fengyun-1c-debris",
        "lat": -8.860061821365804,
        "lon": -3.264660493810442,
        "alt_km": 837.5042014265046,
        "timestamp": "2025-12-13T03:42:11.544344+00:00",
        "meta_object_name": "FENGYUN 1C DEB",
        "meta_object_id": "1999-025CW",
        "meta_epoch": "2025-12-12T07:17:55.936032",
        "meta_mean_motion": 14.04322508,
        "meta_eccentricity": 0.00972011,
        "meta_inclination": 98.8056,
        "meta_ra_of_asc_node": 354.5265,
        "meta_arg_of_pericenter": 303.0805,
        "meta_mean_anomaly": 71.4545,
        "meta_ephemeris_type": 0,
        "meta_classification_type": "U",
        "meta_norad_cat_id": 29804,
        "meta_element_set_no": 999,
        "meta_rev_at_epoch": 96888,
        "meta_bstar": 0.00017719086,
        "meta_mean_motion_dot": 2.5e-06,
        "meta_mean_motion_ddot": 0,
        "tle_line1": "1 29804U 99025CW  25346.30411963  .00000250  00000+0  17719-3 0  9999",
        "tle_line2": "2 29804  98.8056 354.5265 0097201 303.0805  71.4545 14.04322508968883"
      },
      "geometry": {
        "type": "Point",
        "coordinates": [
          -3.264660493810442,
          -8.860061821365804
        ]
      }
    },
    {
      "type": "Feature",
      "properties": {
        "norad_id": 29805,
        "name": "FENGYUN 1C DEB",
        "group": "fengyun-1c-debris",
        "lat": 74.1309974122809,
        "lon": -105.69185656989683,
        "alt_km": 1062.4591054298198,
        "timestamp": "2025-12-13T03:42:11.544354+00:00",
        "meta_object_name": "FENGYUN 1C DEB",
        "meta_object_id": "1999-025CX",
        "meta_epoch": "2025-12-12T02:41:47.687136",
        "meta_mean_motion": 13.72656751,
        "meta_eccentricity": 0.01879835,
        "meta_inclination": 99.4552,
        "meta_ra_of_asc_node": 37.3919,
        "meta_arg_of_pericenter": 231.4064,
        "meta_mean_anomaly": 127.0118,
        "meta_ephemeris_type": 0,
        "meta_classification_type": "U",
        "meta_norad_cat_id": 29805,
        "meta_element_set_no": 999,
        "meta_rev_at_epoch": 94694,
        "meta_bstar": 0.00023952757,
        "meta_mean_motion_dot": 2.04e-06,
        "meta_mean_motion_ddot": 0,
        "tle_line1": "1 29805U 99025CX  25346.11235749  .00000204  00000+0  23953-3 0  9991",
        "tle_line2": "2 29805  99.4552  37.3919 0187983 231.4064 127.0118 13.72656751946943"
      },
      "geometry": {
        "type": "Point",
        "coordinates": [
          -105.69185656989683,
          74.1309974122809
        ]
      }
    },
    {
      "type": "Feature",
      "properties": {
        "norad_id": 29806,
        "name": "FENGYUN 1C DEB",
        "group": "fengyun-1c-debris",
        "lat": 9.953861914253075,
        "lon": 1.3898532501573304,
        "alt_km": 863.801887449189,
        "timestamp": "2025-12-13T03:42:11.544364+00:00",
        "meta_object_name": "FENGYUN 1C DEB",
        "meta_object_id": "1999-025CY",
        "meta_epoch": "2025-12-12T07:21:19.892736",
        "meta_mean_motion": 14.12005179,
        "meta_eccentricity": 0.0027593,
        "meta_inclination": 98.7128,
        "meta_ra_of_asc_node": 2.1083,
        "meta_arg_of_pericenter": 253.1332,
        "meta_mean_anomaly": 129.5276,
        "meta_ephemeris_type": 0,
        "meta_classification_type": "U",
        "meta_norad_cat_id": 29806,
        "meta_element_set_no": 999,
        "meta_rev_at_epoch": 97133,
        "meta_bstar": 0.00075992858,
        "meta_mean_motion_dot": 1.353e-05,
        "meta_mean_motion_ddot": 0,
        "tle_line1": "1 29806U 99025CY  25346.30648024  .00001353  00000+0  75993-3 0  9994",
        "tle_line2": "2 29806  98.7128   2.1083 0027593 253.1332 129.5276 14.12005179971336"
      },
      "geometry": {
        "type": "Point",
        "coordinates": [
          1.3898532501573304,
          9.953861914253075
        ]
      }
    }
  ]
}